{
"type": "FeatureCollection",
"name": "lahore_district_boundary",
"crs": { "type": "name", "properties": { "name": "urn:ogc:def:crs:OGC:1.3:CRS84" } },
"features": [
{ "type": "Feature", "properties": { "name": "Lahore District" }, "geometry": { "type": "Polygon", "coordinates": [ [ [ 74.008743286132869, 31.326715469360408 ], [ 74.009582519531193, 31.350137710571289 ], [ 74.003318786621094, 31.363462448120231 ], [ 74.050132751464901, 31.401252746582088 ], [ 74.038528442382926, 31.41535568237299 ], [ 74.048812866210994, 31.423782348632926 ], [ 74.105148315429631, 31.431720733642692 ], [ 74.125915527343864, 31.421884536743221 ], [ 74.137825012207031, 31.43214035034174 ], [ 74.156272888183594, 31.450880050659123 ], [ 74.174133300781364, 31.464988708496207 ], [ 74.166191101074219, 31.493190765380859 ], [ 74.169639587402344, 31.511699676513672 ], [ 74.184455871582145, 31.518430709838867 ], [ 74.205230712890739, 31.530405044555721 ], [ 74.294540405273381, 31.645965576171932 ], [ 74.311279296875114, 31.677494049072322 ], [ 74.463027954101562, 31.730384826660156 ], [ 74.472785949707088, 31.733173370361328 ], [ 74.506828308105412, 31.738651275634709 ], [ 74.518104553222656, 31.740575790405387 ], [ 74.586349487304801, 31.606435775756893 ], [ 74.592605590820426, 31.592311859130973 ], [ 74.604347229003906, 31.535909652710075 ], [ 74.603851318359432, 31.534111022949219 ], [ 74.5657958984375, 31.501728057861442 ], [ 74.566200256347656, 31.500839233398551 ], [ 74.623947143554631, 31.486917495727596 ], [ 74.626457214355469, 31.486690521240178 ], [ 74.640724182128849, 31.463689804077148 ], [ 74.642066955566349, 31.46154975891119 ], [ 74.572120666503906, 31.346538543701172 ], [ 74.56964111328125, 31.340820312500114 ], [ 74.487663269043026, 31.356845855712891 ], [ 74.465652465820312, 31.352548599243107 ], [ 74.440063476562614, 31.34088134765625 ], [ 74.424522399902401, 31.319541931152344 ], [ 74.428527832031307, 31.297668457031307 ], [ 74.423309326171875, 31.287538528442383 ], [ 74.365287780761832, 31.273128509521484 ], [ 74.344253540039119, 31.261854171752873 ], [ 74.311882019043082, 31.263982772827148 ], [ 74.284988403320426, 31.276235580444393 ], [ 74.23154449462902, 31.263841629028434 ], [ 74.208602905273494, 31.250276565551871 ], [ 74.17401123046875, 31.267520904541129 ], [ 74.165306091308651, 31.27763557434082 ], [ 74.056472778320426, 31.289541244506836 ], [ 74.034782409667969, 31.289878845214901 ], [ 74.008743286132869, 31.326715469360408 ] ] ] } }
]
}
